{"spkid": "54122193", "covariance": {"epoch": "2458804.5", "labels": ["e", "q", "tp", "node", "peri", "i"], "data": [["2.963181261738908E-15", "-3.512374971299965E-15", "-5.429784751930071E-14", "-2.884585066099202E-14", "-5.132832324208738E-14", "-2.519146011446785E-14"], ["-3.512374971299965E-15", "4.16660873110679E-15", "2.209023174379867E-14", "3.27590252367103E-14", "3.37499585290355E-14", "2.812161260560128E-14"], ["-5.429784751930071E-14", "2.209023174379867E-14", "1.920842531132989E-9", "1.725946841085274E-11", "1.38998261484058E-9", "6.786532357229394E-11"], ["-2.884585066099202E-14", "3.27590252367103E-14", "1.725946841085274E-11", "2.013467683036691E-10", "-1.864448491924176E-10", "-7.383410331322206E-12"], ["-5.132832324208738E-14", "3.37499585290355E-14", "1.38998261484058E-9", "-1.864448491924176E-10", "1.212662506375028E-9", "5.680088239633671E-11"], ["-2.519146011446785E-14", "2.812161260560128E-14", "6.786532357229394E-11", "-7.383410331322206E-12", "5.680088239633671E-11", "3.775535504738805E-11"]], "elements": [{"sigma": 5.44351105605464e-08, "name": "e", "value": ".0760588131762228", "title": "eccentricity", "units": null, "label": "e"}, {"label": "q", "name": "q", "sigma": 6.45492736683132e-08, "units": "au", "title": "perihelion distance", "value": "1.060028002067552"}, {"label": "tp", "units": "TDB", "value": "2458587.394035556659", "title": "time of perihelion passage", "name": "tp", "sigma": 4.38274175731698e-05}, {"label": "node", "units": "deg", "title": "longitude of the ascending node", "value": "138.4425528085426", "sigma": 1.41896711837755e-05, "name": "om"}, {"title": "argument of perihelion", "value": "191.9377391882342", "units": "deg", "name": "w", "sigma": 3.48233040703353e-05, "label": "peri"}, {"label": "i", "name": "i", "sigma": 6.14453863584468e-06, "title": "inclination", "value": "12.24130718123625", "units": "deg"}]}, "elements": [{"label": "e", "sigma": "5.4383E-8", "name": "e", "units": null, "title": "eccentricity", "value": ".0761243882122158"}, {"label": "a", "units": "au", "title": "semi-major axis", "value": "1.147254244041654", "sigma": "2.9883E-9", "name": "a"}, {"label": "q", "units": "au", "title": "perihelion distance", "value": "1.059920216590115", "name": "q", "sigma": "6.4484E-8"}, {"label": "i", "name": "i", "sigma": "6.1442E-6", "value": "12.2414748038358", "title": "inclination; angle with respect to x-y ecliptic plane", "units": "deg"}, {"label": "node", "title": "longitude of the ascending node", "value": "138.4071711020317", "units": "deg", "sigma": "1.419E-5", "name": "om"}, {"label": "peri", "name": "w", "sigma": "3.4814E-5", "value": "191.9149153016507", "title": "argument of perihelion", "units": "deg"}, {"label": "M", "units": "deg", "title": "mean anomaly", "value": "295.8832915679993", "name": "ma", "sigma": "3.3201E-5"}, {"label": "tp", "title": "time of perihelion passage", "value": "2461280.438621417841", "units": "TDB", "sigma": "4.1358E-5", "name": "tp"}, {"label": "period", "units": "d", "value": "448.8362614706493", "title": "sidereal orbital period", "name": "per", "sigma": "1.7537E-6"}, {"label": "n", "name": "n", "sigma": "3.1338E-9", "value": ".8020742326398275", "title": "mean motion", "units": "deg/d"}, {"sigma": "3.2158E-9", "name": "ad", "title": "aphelion distance", "value": "1.234588271493194", "units": "au", "label": "Q"}], "epoch": "2461200.5"}